{
  "type": "FeatureCollection",
  "features": [
    {
      "type": "Feature",
      "properties": {
        "norad_id": 66559,
        "name": "STARLINK-35419",
        "group": "last-30-days",
        "lat": -34.05234230418662,
        "lon": -29.41474329959977,
        "alt_km": 415.7187326579606,
        "timestamp": "2025-12-15T15:53:18.660712+00:00",
        "meta_object_name": "STARLINK-35419",
        "meta_object_id": "2025-268C",
        "meta_epoch": "2025-12-14T09:30:32.301216",
        "meta_mean_motion": 15.5061065,
        "meta_eccentricity": 0.00025477,
        "meta_inclination": 43.0006,
        "meta_ra_of_asc_node": 111.5031,
        "meta_arg_of_pericenter": 263.7459,
        "meta_mean_anomaly": 96.3111,
        "meta_ephemeris_type": 0,
        "meta_classification_type": "U",
        "meta_norad_cat_id": 66559,
        "meta_element_set_no": 999,
        "meta_rev_at_epoch": 488,
        "meta_bstar": 0.001857265,
        "meta_mean_motion_dot": 0.00110293,
        "meta_mean_motion_ddot": 0,
        "tle_line1": "1 66559U 25268C   25348.39620719  .00110293  00000+0  18573-2 0  9994",
        "tle_line2": "2 66559  43.0006 111.5031 0002547 263.7459  96.3111 15.50610650  4882"
      },
      "geometry": {
        "type": "Point",
        "coordinates": [
          -29.41474329959977,
          -34.05234230418662
        ]
      }
    },
    {
      "type": "Feature",
      "properties": {
        "norad_id": 66560,
        "name": "STARLINK-35411",
        "group": "last-30-days",
        "lat": -34.897292848002,
        "lon": -27.44355395625079,
        "alt_km": 416.050320572017,
        "timestamp": "2025-12-15T15:53:18.660721+00:00",
        "meta_object_name": "STARLINK-35411",
        "meta_object_id": "2025-268D",
        "meta_epoch": "2025-12-14T09:30:02.962368",
        "meta_mean_motion": 15.50584782,
        "meta_eccentricity": 0.00021147,
        "meta_inclination": 42.9999,
        "meta_ra_of_asc_node": 111.5004,
        "meta_arg_of_pericenter": 268.2256,
        "meta_mean_anomaly": 91.8362,
        "meta_ephemeris_type": 0,
        "meta_classification_type": "U",
        "meta_norad_cat_id": 66560,
        "meta_element_set_no": 999,
        "meta_rev_at_epoch": 488,
        "meta_bstar": 0.0020055135,
        "meta_mean_motion_dot": 0.00119146,
        "meta_mean_motion_ddot": 0,
        "tle_line1": "1 66560U 25268D   25348.39586762  .00119146  00000+0  20055-2 0  9999",
        "tle_line2": "2 66560  42.9999 111.5004 0002114 268.2256  91.8362 15.50584782  4882"
      },
      "geometry": {
        "type": "Point",
        "coordinates": [
          -27.44355395625079,
          -34.897292848002
        ]
      }
    },
    {
      "type": "Feature",
      "properties": {
        "norad_id": 66561,
        "name": "STARLINK-35305",
        "group": "last-30-days",
        "lat": -36.499453293460334,
        "lon": -23.351129865803767,
        "alt_km": 416.47816735946253,
        "timestamp": "2025-12-15T15:53:18.660731+00:00",
        "meta_object_name": "STARLINK-35305",
        "meta_object_id": "2025-268E",
        "meta_epoch": "2025-12-14T09:29:03.790464",
        "meta_mean_motion": 15.50595766,
        "meta_eccentricity": 0.00016653,
        "meta_inclination": 43,
        "meta_ra_of_asc_node": 111.4952,
        "meta_arg_of_pericenter": 263.4795,
        "meta_mean_anomaly": 96.5876,
        "meta_ephemeris_type": 0,
        "meta_classification_type": "U",
        "meta_norad_cat_id": 66561,
        "meta_element_set_no": 999,
        "meta_rev_at_epoch": 488,
        "meta_bstar": 0.0014529464,
        "meta_mean_motion_dot": 0.00085888,
        "meta_mean_motion_ddot": 0,
        "tle_line1": "1 66561U 25268E   25348.39518276  .00085888  00000+0  14529-2 0  9999",
        "tle_line2": "2 66561  43.0000 111.4952 0001665 263.4795  96.5876 15.50595766  4880"
      },
      "geometry": {
        "type": "Point",
        "coordinates": [
          -23.351129865803767,
          -36.499453293460334
        ]
      }
    },
    {
      "type": "Feature",
      "properties": {
        "norad_id": 66562,
        "name": "STARLINK-35579",
        "group": "last-30-days",
        "lat": -35.6747015974969,
        "lon": -25.523950181459004,
        "alt_km": 416.7975106114209,
        "timestamp": "2025-12-15T15:53:18.660740+00:00",
        "meta_object_name": "STARLINK-35579",
        "meta_object_id": "2025-268F",
        "meta_epoch": "2025-12-14T09:29:33.423072",
        "meta_mean_motion": 15.50596687,
        "meta_eccentricity": 0.0001537,
        "meta_inclination": 43,
        "meta_ra_of_asc_node": 111.4966,
        "meta_arg_of_pericenter": 283.1897,
        "meta_mean_anomaly": 76.8791,
        "meta_ephemeris_type": 0,
        "meta_classification_type": "U",
        "meta_norad_cat_id": 66562,
        "meta_element_set_no": 999,
        "meta_rev_at_epoch": 488,
        "meta_bstar": 0.0013652976,
        "meta_mean_motion_dot": 0.00080634,
        "meta_mean_motion_ddot": 0,
        "tle_line1": "1 66562U 25268F   25348.39552573  .00080634  00000+0  13653-2 0  9999",
        "tle_line2": "2 66562  43.0000 111.4966 0001537 283.1897  76.8791 15.50596687  4886"
      },
      "geometry": {
        "type": "Point",
        "coordinates": [
          -25.523950181459004,
          -35.6747015974969
        ]
      }
    },
    {
      "type": "Feature",
      "properties": {
        "norad_id": 66563,
        "name": "STARLINK-35437",
        "group": "last-30-days",
        "lat": -37.29505875153907,
        "lon": -21.100967740690002,
        "alt_km": 416.4554398399787,
        "timestamp": "2025-12-15T15:53:18.660750+00:00",
        "meta_object_name": "STARLINK-35437",
        "meta_object_id": "2025-268G",
        "meta_epoch": "2025-12-14T09:28:34.176864",
        "meta_mean_motion": 15.50599771,
        "meta_eccentricity": 0.00016075,
        "meta_inclination": 42.9994,
        "meta_ra_of_asc_node": 111.4909,
        "meta_arg_of_pericenter": 261.4336,
        "meta_mean_anomaly": 98.6342,
        "meta_ephemeris_type": 0,
        "meta_classification_type": "U",
        "meta_norad_cat_id": 66563,
        "meta_element_set_no": 999,
        "meta_rev_at_epoch": 488,
        "meta_bstar": 0.0015648949,
        "meta_mean_motion_dot": 0.00092625,
        "meta_mean_motion_ddot": 0,
        "tle_line1": "1 66563U 25268G   25348.39484001  .00092625  00000+0  15649-2 0  9990",
        "tle_line2": "2 66563  42.9994 111.4909 0001607 261.4336  98.6342 15.50599771  4880"
      },
      "geometry": {
        "type": "Point",
        "coordinates": [
          -21.100967740690002,
          -37.29505875153907
        ]
      }
    },
    {
      "type": "Feature",
      "properties": {
        "norad_id": 66564,
        "name": "STARLINK-35358",
        "group": "last-30-days",
        "lat": -38.04446153059225,
        "lon": -18.811639347101895,
        "alt_km": 416.75262773217673,
        "timestamp": "2025-12-15T15:53:18.660759+00:00",
        "meta_object_name": "STARLINK-35358",
        "meta_object_id": "2025-268H",
        "meta_epoch": "2025-12-14T09:28:04.327392",
        "meta_mean_motion": 15.50612702,
        "meta_eccentricity": 0.00011901,
        "meta_inclination": 42.9991,
        "meta_ra_of_asc_node": 111.4875,
        "meta_arg_of_pericenter": 265.2682,
        "meta_mean_anomaly": 94.8042,
        "meta_ephemeris_type": 0,
        "meta_classification_type": "U",
        "meta_norad_cat_id": 66564,
        "meta_element_set_no": 999,
        "meta_rev_at_epoch": 488,
        "meta_bstar": 0.0014790939,
        "meta_mean_motion_dot": 0.0008751,
        "meta_mean_motion_ddot": 0,
        "tle_line1": "1 66564U 25268H   25348.39449453  .00087510  00000+0  14791-2 0  9997",
        "tle_line2": "2 66564  42.9991 111.4875 0001190 265.2682  94.8042 15.50612702  4888"
      },
      "geometry": {
        "type": "Point",
        "coordinates": [
          -18.811639347101895,
          -38.04446153059225
        ]
      }
    },
    {
      "type": "Feature",
      "properties": {
        "norad_id": 66565,
        "name": "STARLINK-35893",
        "group": "last-30-days",
        "lat": -38.73276846599363,
        "lon": -16.530916769745627,
        "alt_km": 417.4608267843014,
        "timestamp": "2025-12-15T15:53:18.660769+00:00",
        "meta_object_name": "STARLINK-35893",
        "meta_object_id": "2025-268J",
        "meta_epoch": "2025-12-14T09:27:34.947072",
        "meta_mean_motion": 15.50617193,
        "meta_eccentricity": 5.449e-05,
        "meta_inclination": 42.9994,
        "meta_ra_of_asc_node": 111.4854,
        "meta_arg_of_pericenter": 325.9619,
        "meta_mean_anomaly": 34.1206,
        "meta_ephemeris_type": 0,
        "meta_classification_type": "U",
        "meta_norad_cat_id": 66565,
        "meta_element_set_no": 999,
        "meta_rev_at_epoch": 488,
        "meta_bstar": 0.0014479257,
        "meta_mean_motion_dot": 0.00085652,
        "meta_mean_motion_ddot": 0,
        "tle_line1": "1 66565U 25268J   25348.39415448  .00085652  00000+0  14479-2 0  9993",
        "tle_line2": "2 66565  42.9994 111.4854 0000544 325.9619  34.1206 15.50617193  4883"
      },
      "geometry": {
        "type": "Point",
        "coordinates": [
          -16.530916769745627,
          -38.73276846599363
        ]
      }
    }
  ]
}